NORAD_CAT_ID,OBJECT_NAME,OBJECT_TYPE,EPOCH,MEAN_MOTION,ECCENTRICITY,INCLINATION,RA_OF_ASC_NODE,ARG_OF_PERICENTER,MEAN_ANOMALY,BSTAR,MEAN_MOTION_DOT,MEAN_MOTION_DDOT,TLE_LINE0,TLE_LINE1,TLE_LINE2,SEMIMAJOR_AXIS,PERIOD,APOGEE,PERIGEE,DECAYED
52990.0,STARLINK-4286,PAYLOAD,2024-01-23 03:28:53,15.08842654,0.0001748,53.2189,350.1634,90.9082,269.2111,5.319e-05,5.59e-06,0.0,0 STARLINK-4286,1 52990U 22076E   24023.14506742  .00000559  00000-0  53190-4 0  9993,2 52990  53.2189 350.1634 0001748  90.9082 269.2111 15.08842654 85946,6917.872,95.437,540.947,538.528,0.0
52990.0,STARLINK-4286,PAYLOAD,2024-01-23 05:04:16,15.08844654,0.00017,53.2186,349.8662,77.275,282.8432,0.00010455,1.376e-05,0.0,0 STARLINK-4286,1 52990U 22076E   24023.21130723  .00001376  00000-0  10455-3 0  9997,2 52990  53.2186 349.8662 0001700  77.2750 282.8432 15.08844654 85485,6917.866,95.437,540.907,538.555,0.0
52990.0,STARLINK-4286,PAYLOAD,2024-01-24 03:19:41,15.0883983,0.0001711,53.2183,345.7014,77.0369,283.0814,3.6141e-05,2.87e-06,0.0,0 STARLINK-4286,1 52990U 22076E   24024.13866982  .00000287  00000-0  36141-4 0  9993,2 52990  53.2183 345.7014 0001711  77.0369 283.0814 15.08839830 86099,6917.881,95.438,540.93,538.562,0.0
52990.0,STARLINK-4286,PAYLOAD,2024-01-24 04:55:04,15.08842366,0.0001789,53.2186,345.404,71.2167,288.902,0.00010997,1.463e-05,0.0,0 STARLINK-4286,1 52990U 22076E   24024.20490984  .00001463  00000-0  10997-3 0  9993,2 52990  53.2186 345.4040 0001789  71.2167 288.9020 15.08842366 85635,6917.873,95.437,540.976,538.501,0.0
52990.0,STARLINK-4286,PAYLOAD,2024-01-25 04:45:51,15.08846367,0.0002092,53.2194,340.9453,62.1056,298.0148,0.00018028,2.583e-05,0.0,0 STARLINK-4286,1 52990U 22076E   24025.19851106  .00002583  00000-0  18028-3 0  9996,2 52990  53.2194 340.9453 0002092  62.1056 298.0148 15.08846367 86253,6917.861,95.437,541.173,538.279,0.0
52990.0,STARLINK-4286,PAYLOAD,2024-01-25 20:39:42,15.08840831,0.0001379,53.2183,337.9759,97.1738,262.941,8.6067e-05,1.082e-05,0.0,0 STARLINK-4286,1 52990U 22076E   24025.86091277  .00001082  00000-0  86067-4 0  9997,2 52990  53.2183 337.9759 0001379  97.1738 262.9410 15.08840831 85888,6917.878,95.438,540.697,538.789,0.0
52990.0,STARLINK-4286,PAYLOAD,2024-01-26 03:01:15,15.08846636,0.0001413,53.218,336.791,94.1328,265.9826,0.00019477,2.814e-05,0.0,0 STARLINK-4286,1 52990U 22076E   24026.12587121  .00002814  00000-0  19477-3 0  9999,2 52990  53.2180 336.7910 0001413  94.1328 265.9826 15.08846636 86392,6917.86,95.437,540.703,538.748,0.0
52990.0,STARLINK-4286,PAYLOAD,2024-01-27 02:52:02,15.08847254,0.000157,53.2179,332.3245,106.8888,253.2276,7.8081e-05,9.55e-06,0.0,0 STARLINK-4286,1 52990U 22076E   24027.11946968  .00000955  00000-0  78081-4 0  9998,2 52990  53.2179 332.3245 0001570 106.8888 253.2276 15.08847254 86542,6917.858,95.437,540.809,538.637,0.0
52990.0,STARLINK-4286,PAYLOAD,2024-01-27 20:21:17,15.08837473,0.0001566,53.2175,329.0535,104.2007,255.916,0.00012046,1.63e-05,0.0,0 STARLINK-4286,1 52990U 22076E   24027.84811713  .00001630  00000-0  12046-3 0  9996,2 52990  53.2175 329.0535 0001566 104.2007 255.9160 15.08837473 86658,6917.888,95.438,540.836,538.67,0.0
52990.0,STARLINK-4286,PAYLOAD,2024-01-28 05:53:36,15.08843041,0.0001603,53.2185,327.2642,98.8263,261.2911,2.081e-08,-2.88e-06,0.0,0 STARLINK-4286,1 52990U 22076E   24028.24555563 -.00000288  00000-0  20810-7 0  9990,2 52990  53.2185 327.2642 0001603  98.8263 261.2911 15.08843041 86249,6917.871,95.437,540.845,538.627,0.0
52990.0,STARLINK-4286,PAYLOAD,2024-01-29 02:33:36,15.08840951,0.0001568,53.2188,323.3977,108.7811,251.3351,6.3774e-05,7.27e-06,0.0,0 STARLINK-4286,1 52990U 22076E   24029.10667698  .00000727  00000-0  63774-4 0  9999,2 52990  53.2188 323.3977 0001568 108.7811 251.3351 15.08840951 86841,6917.877,95.437,540.827,538.658,0.0
52990.0,STARLINK-4286,PAYLOAD,2024-01-29 05:44:23,15.08836177,0.0001565,53.219,322.8022,110.5574,249.5586,0.00019137,2.759e-05,0.0,0 STARLINK-4286,1 52990U 22076E   24029.23915778  .00002759  00000-0  19137-3 0  9998,2 52990  53.2190 322.8022 0001565 110.5574 249.5586 15.08836177 86397,6917.892,95.438,540.84,538.674,0.0
52990.0,STARLINK-4286,PAYLOAD,2024-01-30 00:49:00,15.08841774,0.0001537,53.2191,319.2338,103.4696,256.6467,0.00011233,1.5e-05,0.0,0 STARLINK-4286,1 52990U 22076E   24030.03403672  .00001500  00000-0  11233-3 0  9995,2 52990  53.2191 319.2338 0001537 103.4696 256.6467 15.08841774 86513,6917.875,95.437,540.803,538.677,0.0
52990.0,STARLINK-4286,PAYLOAD,2024-01-30 23:04:24,15.08842702,0.000141,53.2189,315.0708,105.821,254.2938,5.1181e-05,5.27e-06,0.0,0 STARLINK-4286,1 52990U 22076E   24030.96139755  .00000527  00000-0  51181-4 0  9990,2 52990  53.2189 315.0708 0001410 105.8210 254.2938 15.08842702 86657,6917.872,95.437,540.713,538.762,0.0
52990.0,STARLINK-4286,PAYLOAD,2024-01-31 02:15:10,15.08846441,0.0001346,53.2183,314.4763,83.4207,276.6938,7.4813e-05,9.03e-06,0.0,0 STARLINK-4286,1 52990U 22076E   24031.09387508  .00000903  00000-0  74813-4 0  9991,2 52990  53.2183 314.4763 0001346  83.4207 276.6938 15.08846441 87147,6917.861,95.437,540.657,538.795,0.0
52990.0,STARLINK-4286,PAYLOAD,2024-01-31 18:09:02,15.08838678,0.0001835,53.218,311.5116,56.2203,303.8964,7.8581e-05,9.63e-06,0.0,0 STARLINK-4286,1 52990U 22076E   24031.75628212  .00000963  00000-0  78581-4 0  9996,2 52990  53.2180 311.5116 0001835  56.2203 303.8964 15.08838678 87247,6917.884,95.438,541.019,538.48,0.0
52990.0,STARLINK-4286,PAYLOAD,2024-02-01 02:05:58,15.08837214,0.0001907,53.2189,310.0224,59.568,300.5501,3.2489e-05,2.29e-06,0.0,0 STARLINK-4286,1 52990U 22076E   24032.08748522  .00000229  00000-0  32489-4 0  9992,2 52990  53.2189 310.0224 0001907  59.5680 300.5501 15.08837214 86824,6917.889,95.438,541.073,538.435,0.0
52990.0,STARLINK-4286,PAYLOAD,2024-02-02 00:21:22,15.08844223,0.0001472,53.2181,305.8579,75.9733,284.1423,-2.2783e-05,-6.51e-06,0.0,0 STARLINK-4286,1 52990U 22076E   24033.01484192 -.00000651  00000-0 -22783-4 0  9993,2 52990  53.2181 305.8579 0001472  75.9733 284.1423 15.08844223 87435,6917.867,95.437,540.751,538.714,0.0
52990.0,STARLINK-4286,PAYLOAD,2024-02-02 22:36:46,15.08841884,0.0001551,53.2181,301.6951,76.8987,283.2178,9.5894e-05,1.239e-05,0.0,0 STARLINK-4286,1 52990U 22076E   24033.94219975  .00001239  00000-0  95894-4 0  9994,2 52990  53.2181 301.6951 0001551  76.8987 283.2178 15.08841884 87103,6917.875,95.437,540.813,538.667,0.0
52990.0,STARLINK-4286,PAYLOAD,2024-02-03 03:22:55,15.0884767,0.0001546,53.2175,300.8006,78.6856,281.431,0.00012112,1.641e-05,0.0,0 STARLINK-4286,1 52990U 22076E   24034.14091485  .00001641  00000-0  12112-3 0  9999,2 52990  53.2175 300.8006 0001546  78.6856 281.4310 15.08847670 87609,6917.857,95.437,540.791,538.652,0.0
52990.0,STARLINK-4286,PAYLOAD,2024-02-03 20:52:09,15.08840996,0.0002015,53.2165,297.5269,136.4402,223.675,5.2512e-05,5.48e-06,0.0,0 STARLINK-4286,1 52990U 22076E   24034.86955743  .00000548  00000-0  52512-4 0  9998,2 52990  53.2165 297.5269 0002015 136.4402 223.6750 15.08840996 87715,6917.877,95.437,541.136,538.348,0.0
52990.0,STARLINK-4286,PAYLOAD,2024-02-03 22:27:32,15.08842683,0.0001935,53.2173,297.2298,129.243,230.8734,6.099e-05,6.83e-06,0.0,0 STARLINK-4286,1 52990U 22076E   24034.93579683  .00000683  00000-0  60990-4 0  9990,2 52990  53.2173 297.2298 0001935 129.2430 230.8734 15.08842683 87250,6917.872,95.437,541.076,538.399,0.0
52990.0,STARLINK-4286,PAYLOAD,2024-02-04 00:02:56,15.08841422,0.0001552,53.2175,296.9382,86.4211,273.6959,4.6443e-05,4.51e-06,0.0,0 STARLINK-4286,1 52990U 22076E   24035.00204154  .00000451  00000-0  46443-4 0  9997,2 52990  53.2175 296.9382 0001552  86.4211 273.6959 15.08841422 87263,6917.876,95.437,540.815,538.667,0.0
52990.0,STARLINK-4286,PAYLOAD,2024-02-04 22:18:20,15.08844652,0.0001512,53.2183,292.776,106.7632,253.3526,-6.8756e-06,-3.97e-06,0.0,0 STARLINK-4286,1 52990U 22076E   24035.92940030 -.00000397  00000-0 -68756-5 0  9991,2 52990  53.2183 292.7760 0001512 106.7632 253.3526 15.08844652 87404,6917.866,95.437,540.777,538.685,0.0
52990.0,STARLINK-4286,PAYLOAD,2024-02-04 23:53:43,15.08845245,0.0001482,53.218,292.4785,99.4463,260.6697,5.0223e-06,-2.08e-06,0.0,0 STARLINK-4286,1 52990U 22076E   24035.99563976 -.00000208  00000-0  50223-5 0  9998,2 52990  53.2180 292.4785 0001482  99.4463 260.6697 15.08845245 87882,6917.864,95.437,540.755,538.704,0.0
52990.0,STARLINK-4286,PAYLOAD,2024-02-05 09:26:02,15.08843638,0.0001403,53.2173,290.6912,93.8426,266.2727,-1.3797e-05,-5.08e-06,0.0,0 STARLINK-4286,1 52990U 22076E   24036.39308074 -.00000508  00000-0 -13797-4 0  9997,2 52990  53.2173 290.6912 0001403  93.8426 266.2727 15.08843638 87471,6917.869,95.437,540.705,538.764,0.0
52990.0,STARLINK-4286,PAYLOAD,2024-02-05 22:09:07,15.08840977,0.0001329,53.2172,288.3112,92.2613,267.8531,4.1601e-05,3.74e-06,0.0,0 STARLINK-4286,1 52990U 22076E   24036.92300183  .00000374  00000-0  41601-4 0  9993,2 52990  53.2172 288.3112 0001329  92.2613 267.8531 15.08840977 87556,6917.877,95.437,540.662,538.823,0.0
52990.0,STARLINK-4286,PAYLOAD,2024-02-06 02:55:16,15.08844898,0.0001383,53.2178,287.417,103.1401,256.9746,5.7582e-05,6.29e-06,0.0,0 STARLINK-4286,1 52990U 22076E   24037.12171809  .00000629  00000-0  57582-4 0  9995,2 52990  53.2178 287.4170 0001383 103.1401 256.9746 15.08844898 88052,6917.865,95.437,540.687,538.774,0.0
52990.0,STARLINK-4286,PAYLOAD,2024-02-06 21:59:54,15.08844098,0.000132,53.2175,283.8468,98.1032,262.011,-5.1515e-06,-3.7e-06,0.0,0 STARLINK-4286,1 52990U 22076E   24037.91660197 -.00000370  00000-0 -51515-5 0  9991,2 52990  53.2175 283.8468 0001320  98.1032 262.0110 15.08844098 87709,6917.868,95.437,540.646,538.82,0.0
52990.0,STARLINK-4286,PAYLOAD,2024-02-07 02:46:03,15.08844166,0.0001307,53.2173,282.9545,95.4877,264.6264,-6.5102e-06,-3.92e-06,0.0,0 STARLINK-4286,1 52990U 22076E   24038.11532159 -.00000392  00000-0 -65102-5 0  9991,2 52990  53.2173 282.9545 0001307  95.4877 264.6264 15.08844166 88205,6917.868,95.437,540.637,538.828,0.0
